POLYITAN-1              
1 40042U 14033AJ  26198.58432221  .00009903  00000+0  30090-3 0  9999
2 40042  98.0931 227.7445 0007692  57.2583 302.9398 15.34270589658251
TIGRISAT                
1 40043U 14033AK  26198.36563391  .00000680  00000+0  84001-4 0  9994
2 40043  97.7867 347.6934 0048463 337.1451  22.7607 14.85252924650100
AEROCUBE 6A             
1 40045U 14033AM  26197.94391534  .00003216  00000+0  27140-3 0  9995
2 40045  97.7255   4.5832 0036191 274.9272  84.7819 14.98354655651071
AEROCUBE 6B             
1 40046U 14033AN  26198.91804933  .00002584  00000+0  21070-3 0  9999
2 40046  97.7206   5.3999 0038129 260.4771  99.2142 14.99812369651362
CANX-4                  
1 40055U 14034C   26198.61664448  .00000360  00000+0  53443-4 0  9992
2 40055  98.3079  75.0414 0011375 274.1361  85.8550 14.81313347649032
CANX-5                  
1 40056U 14034D   26198.88491247  .00000380  00000+0  56070-4 0  9998
2 40056  98.3082  75.3648 0011373 273.4315  86.5595 14.81331073639883
UKUBE-1                 
1 40074U 14037F   26198.97116709  .00004729  00000+0  26498-3 0  9999
2 40074  98.4244 205.4889 0003192  83.1605 276.9987 15.13974447653212
BRITE-PL2 (HEWELIUSZ)   
1 40119U 14049B   26198.83391316  .00000566  00000+0  57609-4 0  9990
2 40119  97.9121 311.0758 0014076  13.6033 346.5563 14.94690566646025
AEROCUBE 5C             
1 40965U 15058B   26198.07512414  .00001675  00000+0  15601-3 0  9997
2 40965  64.7659 169.5989 0132480  51.7262 309.5681 14.91582977370118
AEROCUBE 7              
1 40966U 15058C   26198.92140628  .00002793  00000+0  22814-3 0  9992
2 40966  64.7616 148.5335 0122233  49.7238 311.4486 14.95929594370556
FOX-1A (AO-85)          
1 40967U 15058D   26198.93725960  .00001644  00000+0  15531-3 0  9994
2 40967  64.7725 183.4108 0132584  44.7716 316.4004 14.91098155118153
SINOD-D 1               
1 40968U 15058E   26198.89572528  .00002837  00000+0  23090-3 0  9994
2 40968  64.7740 162.7296 0121280  41.1420 319.8759 14.96103838121252
SNAP-3 ALICE            
1 40970U 15058G   26198.86564696  .00096808  00000+0  85474-3 0  9996
2 40970  64.7499 357.2559 0025192 346.5767  13.4709 15.67750448121683
LMRST-SAT               
1 40971U 15058H   26198.56503910  .00001515  00000+0  14526-3 0  9997
2 40971  64.7732 180.9639 0134107  46.9094 314.3147 14.90711305118088
SNAP-3 EDDIE            
1 40972U 15058J   26198.83083352  .00102609  00000+0  85238-3 0  9995
2 40972  64.7410 347.8654 0026357 349.2904  10.7681 15.69169555123828
PROPCUBE 3              
1 40973U 15058K   26198.86022342  .00002386  00000+0  20322-3 0  9995
2 40973  64.7677 156.6880 0125975  47.9908 313.1849 14.94429277119382
BISONSAT                
1 40974U 15058L   26198.89364842  .00007654  00000+0  36315-3 0  9995
2 40974  64.7580  74.3016 0082394  34.7059 325.9402 15.16975552120274
SNAP-3 JIMI             
1 40975U 15058M   26198.94065309  .00003958  00000+0  27338-3 0  9996
2 40975  64.7648 122.4450 0108054  43.2768 317.6774 15.02632410118849
PROPCUBE 1 (FLORA)      
1 40976U 15058N   26198.41360078  .00001295  00000+0  13141-3 0  9999
2 40976  64.7717 201.5466 0132648  49.2408 312.0126 14.89334482120762
SINOD-D 3               
1 40977U 15058P   26198.96374953  .00002270  00000+0  19741-3 0  9993
2 40977  64.7708 179.6992 0121287  46.0746 315.0300 14.94187016119354
RAVAN                   
1 41849U 16067B   26197.68716448  .00037324  00000+0  50618-3 0  9996
2 41849  97.9839  90.7306 0002422 209.8992 150.2123 15.57575989532282
CELTEE 1                
1 41850U 16067C   26198.09773583  .00002721  00000+0  13018-3 0  9993
2 41850  98.0628  66.7044 0002362 107.7309 252.4182 15.19951703530429
OPTICUBE 04             
1 41851U 16067D   26198.83241426  .00000909  00000+0  60599-4 0  9995
2 41851  98.0673  52.7129 0015975  19.3728 340.8104 15.09777825529790
AEROCUBE 8D             
1 41852U 16067E   26198.08388691  .00004067  00000+0  16734-3 0  9999
2 41852  98.0637  70.5317 0004474  51.9450 308.2189 15.24785915530625
AEROCUBE 8C             
1 41853U 16067F   26198.10392319  .00003851  00000+0  15744-3 0  9995
2 41853  98.0511  67.7427 0004029 334.0627  26.0407 15.25039218530621
CORVUS BC2              
1 42846U 17042X   26198.68430620  .00001076  00000+0  76839-4 0  9993
2 42846  97.4093 358.8567 0013196  14.6637 345.4971 15.06462559491658
CORVUS BC1              
1 42847U 17042Y   26198.87481203  .00001597  00000+0  11163-3 0  9994
2 42847  97.4125 359.8738 0011361 350.4727   9.6284 15.06627864491714
MAKERSAT 0              
1 43016U 17073D   26198.93211796  .00011173  00000+0  29470-3 0  9993
2 43016  97.4572  81.7042 0105583 162.5490 197.9426 15.33071683471176
SIRION PATHFINDER-2     
1 43759U 18099B   26198.37239941  .00001952  00000+0  10860-3 0  9993
2 43759  97.4235 246.7144 0008681 183.7729 176.3440 15.14786252417196
CORVUS BC4              
1 43767U 18099K   26198.08939888  .00001760  00000+0  10409-3 0  9993
2 43767  97.4048 240.1958 0006573 252.7668 107.2844 15.12709455416924
